{"type":"FeatureCollection","features":[{"type":"Feature","properties":{"id":"4321187927327624181","passable":true},"geometry":{"type":"LineString","coordinates":[[-4.02165,-0.205554],[-3.08178,0.694242]]}},{"type":"Feature","properties":{"id":"16233413598164970428","passable":true},"geometry":{"type":"LineString","coordinates":[[-3.08178,0.694242],[-2.47639,1.64363]]}},{"type":"Feature","properties":{"id":"14488762924939086114","passable":false},"geometry":{"type":"LineString","coordinates":[[-2.47639,1.64363],[-1.79425,1.43132]]}},{"type":"Feature","properties":{"id":"15970569288057009259","passable":false},"geometry":{"type":"LineString","coordinates":[[-1.79425,1.43132],[-1.28065,1.26911]]}},{"type":"Feature","properties":{"id":"2318990250233203295","passable":true},"geometry":{"type":"LineString","coordinates":[[-1.28065,1.26911],[-0.452228,0.230218]]}},{"type":"Feature","properties":{"id":"2148580379450266046","passable":false},"geometry":{"type":"LineString","coordinates":[[-0.452228,0.230218],[0.411259,-0.386284]]}},{"type":"Feature","properties":{"id":"15898237313508081445","passable":false},"geometry":{"type":"LineString","coordinates":[[0.411259,-0.386284],[1.1669,-1.0651]]}},{"type":"Feature","properties":{"id":"12262275462855669205","passable":true},"geometry":{"type":"LineString","coordinates":[[1.1669,-1.0651],[1.64626,-1.68629]]}},{"type":"Feature","properties":{"id":"9365702530796710457","passable":true},"geometry":{"type":"LineString","coordinates":[[1.64626,-1.68629],[2.76857,-1.53771]]}},{"type":"Feature","properties":{"id":"3475469709170944012","passable":false},"geometry":{"type":"LineString","coordinates":[[2.76857,-1.53771],[3.14155,-0.833509]]}},{"type":"Feature","properties":{"id":"9342429644226838236","passable":true},"geometry":{"type":"LineString","coordinates":[[3.14155,-0.833509],[3.74748,0.219799]]}}]}
